GLOBALSTAR M035 [-]     
1 25851U 99037A   24022.53913925 -.00000029  00000+0  13030-2 0  9996
2 25851  51.9949 115.9731 0013552 228.3335 226.7854 11.04528503 39723
GLOBALSTAR M032 [-]     
1 25852U 99037B   24023.13132596 -.00000016  00000+0  16206-2 0  9995
2 25852  51.9987 335.1173 0009694  25.9598 334.1687 11.19050235 77577
GLOBALSTAR M051 [-]     
1 25853U 99037C   24022.62854811 -.00000052  00000+0  48432-3 0  9997
2 25853  51.9759 194.9506 0002126  50.2183 309.8815 11.42196076 73938
GLOBALSTAR M030 [-]     
1 25854U 99037D   24023.18002041 -.00000059  00000+0  33663-3 0  9997
2 25854  51.9900  32.2169 0004168 208.4251 151.6339 11.55087057 90998
GLOBALSTAR M048 [-]     
1 25872U 99041A   24022.54682079 -.00000082  00000+0 -31046-3 0  9996
2 25872  51.9369 110.3964 0012901  22.7929  78.5739 11.33842587 66943
GLOBALSTAR M026 [-]     
1 25873U 99041B   24022.90864862 -.00000069  00000+0 -18693-3 0  9997
2 25873  51.9974 238.5010 0002133 104.2577 357.1126 11.06835267 91875
GLOBALSTAR M043 [-]     
1 25874U 99041C   24022.80372279 -.00000046  00000+0  65874-3 0  9990
2 25874  51.9362 197.0490 0013375 156.5252 306.8859 11.25674364 65288
GLOBALSTAR M028 [-]     
1 25875U 99041D   24022.87136199 -.00000047  00000+0  34776-3 0  9995
2 25875  51.9623 277.6763 0064314  41.3614 319.2092 12.50548813126237
